CCSDS_OMM_VERS = 2.0
CREATION_DATE  = 
ORIGINATOR     = 

OBJECT_NAME    = ERS-1
OBJECT_ID      = 1991-050A
CENTER_NAME    = EARTH
REF_FRAME      = TEME
TIME_SYSTEM    = UTC
MEAN_ELEMENT_THEORY = SGP/SGP4

EPOCH          = 2026-03-31T12:34:05.480256
MEAN_MOTION    = 14.39466220
ECCENTRICITY   = .00327984
INCLINATION    = 98.7862
RA_OF_ASC_NODE = 109.3059
ARG_OF_PERICENTER = 136.1672
MEAN_ANOMALY   = 224.2126

EPHEMERIS_TYPE = 0
CLASSIFICATION_TYPE = U
NORAD_CAT_ID   = 21574
ELEMENT_SET_NO = 999
REV_AT_EPOCH   = 81887
BSTAR          = .14962897E-3
MEAN_MOTION_DOT = .423E-5
MEAN_MOTION_DDOT = 0

CCSDS_OMM_VERS = 2.0
CREATION_DATE  = 
ORIGINATOR     = 

OBJECT_NAME    = ARIANE 40 R/B
OBJECT_ID      = 1991-050F
CENTER_NAME    = EARTH
REF_FRAME      = TEME
TIME_SYSTEM    = UTC
MEAN_ELEMENT_THEORY = SGP/SGP4

EPOCH          = 2026-03-31T14:12:31.363488
MEAN_MOTION    = 14.42909782
ECCENTRICITY   = .000339
INCLINATION    = 98.1966
RA_OF_ASC_NODE = 142.0017
ARG_OF_PERICENTER = 31.0772
MEAN_ANOMALY   = 329.0618

EPHEMERIS_TYPE = 0
CLASSIFICATION_TYPE = U
NORAD_CAT_ID   = 21610
ELEMENT_SET_NO = 999
REV_AT_EPOCH   = 82215
BSTAR          = .13349E-3
MEAN_MOTION_DOT = .404E-5
MEAN_MOTION_DDOT = 0

CCSDS_OMM_VERS = 2.0
CREATION_DATE  = 
ORIGINATOR     = 

OBJECT_NAME    = INTERCOSMOS 25
OBJECT_ID      = 1991-086A
CENTER_NAME    = EARTH
REF_FRAME      = TEME
TIME_SYSTEM    = UTC
MEAN_ELEMENT_THEORY = SGP/SGP4

EPOCH          = 2026-03-31T12:46:42.282912
MEAN_MOTION    = 12.12074891
ECCENTRICITY   = .14864424
INCLINATION    = 82.6004
RA_OF_ASC_NODE = 296.8025
ARG_OF_PERICENTER = 69.8713
MEAN_ANOMALY   = 305.5780

EPHEMERIS_TYPE = 0
CLASSIFICATION_TYPE = U
NORAD_CAT_ID   = 21819
ELEMENT_SET_NO = 999
REV_AT_EPOCH   = 49933
BSTAR          = .43789882E-3
MEAN_MOTION_DOT = .2265E-4
MEAN_MOTION_DDOT = 0

CCSDS_OMM_VERS = 2.0
CREATION_DATE  = 
ORIGINATOR     = 

OBJECT_NAME    = SL-8 R/B
OBJECT_ID      = 1992-008B
CENTER_NAME    = EARTH
REF_FRAME      = TEME
TIME_SYSTEM    = UTC
MEAN_ELEMENT_THEORY = SGP/SGP4

EPOCH          = 2026-03-31T21:50:41.801856
MEAN_MOTION    = 13.75969676
ECCENTRICITY   = .0035887
INCLINATION    = 82.9237
RA_OF_ASC_NODE = 251.2442
ARG_OF_PERICENTER = 73.4244
MEAN_ANOMALY   = 35.7534

EPHEMERIS_TYPE = 0
CLASSIFICATION_TYPE = U
NORAD_CAT_ID   = 21876
ELEMENT_SET_NO = 999
REV_AT_EPOCH   = 71247
BSTAR          = -.13957E-5
MEAN_MOTION_DOT = .14E-6
MEAN_MOTION_DDOT = 0

CCSDS_OMM_VERS = 2.0
CREATION_DATE  = 
ORIGINATOR     = 

OBJECT_NAME    = SL-8 R/B
OBJECT_ID      = 1992-020B
CENTER_NAME    = EARTH
REF_FRAME      = TEME
TIME_SYSTEM    = UTC
MEAN_ELEMENT_THEORY = SGP/SGP4

EPOCH          = 2026-03-31T21:36:20.793024
MEAN_MOTION    = 13.75550615
ECCENTRICITY   = .0027876
INCLINATION    = 82.9298
RA_OF_ASC_NODE = 137.2701
ARG_OF_PERICENTER = 233.9069
MEAN_ANOMALY   = 298.8896

EPHEMERIS_TYPE = 0
CLASSIFICATION_TYPE = U
NORAD_CAT_ID   = 21938
ELEMENT_SET_NO = 999
REV_AT_EPOCH   = 70418
BSTAR          = .32781E-4
MEAN_MOTION_DOT = .47E-6
MEAN_MOTION_DDOT = 0

CCSDS_OMM_VERS = 2.0
CREATION_DATE  = 
ORIGINATOR     = 

OBJECT_NAME    = USA 81
OBJECT_ID      = 1992-023A
CENTER_NAME    = EARTH
REF_FRAME      = TEME
TIME_SYSTEM    = UTC
MEAN_ELEMENT_THEORY = SGP/SGP4

EPOCH          = 2026-03-31T12:34:52.474944
MEAN_MOTION    = 14.32375169
ECCENTRICITY   = .00016638
INCLINATION    = 85.0044
RA_OF_ASC_NODE = 118.8399
ARG_OF_PERICENTER = 68.4743
MEAN_ANOMALY   = 291.6627

EPHEMERIS_TYPE = 0
CLASSIFICATION_TYPE = U
NORAD_CAT_ID   = 21949
ELEMENT_SET_NO = 999
REV_AT_EPOCH   = 9791
BSTAR          = .78475155E-4
MEAN_MOTION_DOT = .232E-5
MEAN_MOTION_DDOT = 0

CCSDS_OMM_VERS = 2.0
CREATION_DATE  = 
ORIGINATOR     = 

OBJECT_NAME    = COSMOS 2219
OBJECT_ID      = 1992-076A
CENTER_NAME    = EARTH
REF_FRAME      = TEME
TIME_SYSTEM    = UTC
MEAN_ELEMENT_THEORY = SGP/SGP4

EPOCH          = 2026-03-31T20:58:52.671072
MEAN_MOTION    = 14.14089795
ECCENTRICITY   = .0017783
INCLINATION    = 71.0614
RA_OF_ASC_NODE = 331.6968
ARG_OF_PERICENTER = 173.9854
MEAN_ANOMALY   = 186.1485

EPHEMERIS_TYPE = 0
CLASSIFICATION_TYPE = U
NORAD_CAT_ID   = 22219
ELEMENT_SET_NO = 999
REV_AT_EPOCH   = 72151
BSTAR          = -.84317E-4
MEAN_MOTION_DOT = -.208E-5
MEAN_MOTION_DDOT = 0

CCSDS_OMM_VERS = 2.0
CREATION_DATE  = 
ORIGINATOR     = 

OBJECT_NAME    = SL-16 R/B
OBJECT_ID      = 1992-076B
CENTER_NAME    = EARTH
REF_FRAME      = TEME
TIME_SYSTEM    = UTC
MEAN_ELEMENT_THEORY = SGP/SGP4

EPOCH          = 2026-03-31T21:16:39.453600
MEAN_MOTION    = 14.16863269
ECCENTRICITY   = .0010791
INCLINATION    = 70.9991
RA_OF_ASC_NODE = 141.6198
ARG_OF_PERICENTER = 55.0893
MEAN_ANOMALY   = 116.7550

EPHEMERIS_TYPE = 0
CLASSIFICATION_TYPE = U
NORAD_CAT_ID   = 22220
ELEMENT_SET_NO = 999
REV_AT_EPOCH   = 72497
BSTAR          = -.71729E-4
MEAN_MOTION_DOT = -.192E-5
MEAN_MOTION_DDOT = 0

CCSDS_OMM_VERS = 2.0
CREATION_DATE  = 
ORIGINATOR     = 

OBJECT_NAME    = COSMOS 2221
OBJECT_ID      = 1992-080A
CENTER_NAME    = EARTH
REF_FRAME      = TEME
TIME_SYSTEM    = UTC
MEAN_ELEMENT_THEORY = SGP/SGP4

EPOCH          = 2026-03-31T20:09:47.612160
MEAN_MOTION    = 14.96296818
ECCENTRICITY   = .0015623
INCLINATION    = 82.5006
RA_OF_ASC_NODE = 257.8562
ARG_OF_PERICENTER = 116.2103
MEAN_ANOMALY   = 244.0727

EPHEMERIS_TYPE = 0
CLASSIFICATION_TYPE = U
NORAD_CAT_ID   = 22236
ELEMENT_SET_NO = 999
REV_AT_EPOCH   = 78410
BSTAR          = .24279E-3
MEAN_MOTION_DOT = .2775E-4
MEAN_MOTION_DDOT = 0

CCSDS_OMM_VERS = 2.0
CREATION_DATE  = 
ORIGINATOR     = 

OBJECT_NAME    = SL-16 R/B
OBJECT_ID      = 1992-093B
CENTER_NAME    = EARTH
REF_FRAME      = TEME
TIME_SYSTEM    = UTC
MEAN_ELEMENT_THEORY = SGP/SGP4

EPOCH          = 2026-03-31T13:50:13.490592
MEAN_MOTION    = 14.15455764
ECCENTRICITY   = .0006568
INCLINATION    = 71.0227
RA_OF_ASC_NODE = 318.3221
ARG_OF_PERICENTER = 272.6425
MEAN_ANOMALY   = 87.3946

EPHEMERIS_TYPE = 0
CLASSIFICATION_TYPE = U
NORAD_CAT_ID   = 22285
ELEMENT_SET_NO = 999
REV_AT_EPOCH   = 71625
BSTAR          = .72736E-4
MEAN_MOTION_DOT = .94E-6
MEAN_MOTION_DDOT = 0

CCSDS_OMM_VERS = 2.0
CREATION_DATE  = 
ORIGINATOR     = 

OBJECT_NAME    = COSMOS 2228
OBJECT_ID      = 1992-094A
CENTER_NAME    = EARTH
REF_FRAME      = TEME
TIME_SYSTEM    = UTC
MEAN_ELEMENT_THEORY = SGP/SGP4

EPOCH          = 2026-03-31T20:12:00.701856
MEAN_MOTION    = 14.97309733
ECCENTRICITY   = .0017069
INCLINATION    = 82.5193
RA_OF_ASC_NODE = 216.1007
ARG_OF_PERICENTER = 224.0472
MEAN_ANOMALY   = 135.9391

EPHEMERIS_TYPE = 0
CLASSIFICATION_TYPE = U
NORAD_CAT_ID   = 22286
ELEMENT_SET_NO = 999
REV_AT_EPOCH   = 77937
BSTAR          = .29405E-3
MEAN_MOTION_DOT = .3445E-4
MEAN_MOTION_DDOT = 0

CCSDS_OMM_VERS = 2.0
CREATION_DATE  = 
ORIGINATOR     = 

OBJECT_NAME    = SL-16 R/B
OBJECT_ID      = 1993-016B
CENTER_NAME    = EARTH
REF_FRAME      = TEME
TIME_SYSTEM    = UTC
MEAN_ELEMENT_THEORY = SGP/SGP4

EPOCH          = 2026-03-31T11:28:02.482464
MEAN_MOTION    = 14.15306149
ECCENTRICITY   = .00123508
INCLINATION    = 71.0075
RA_OF_ASC_NODE = 169.4232
ARG_OF_PERICENTER = 286.0384
MEAN_ANOMALY   = 73.9378

EPHEMERIS_TYPE = 0
CLASSIFICATION_TYPE = U
NORAD_CAT_ID   = 22566
ELEMENT_SET_NO = 999
REV_AT_EPOCH   = 70525
BSTAR          = .10624955E-3
MEAN_MOTION_DOT = .159E-5
MEAN_MOTION_DDOT = 0

